{"type": "FeatureCollection", "features": [ {"type": "Feature", "properties": {"norad_id": 33825, "name": "COSMOS 2251 DEB", "group": "cosmos-2251-debris", "lat": -71.06060800322207, "lon": -112.05568135390382, "alt_km": 653.972768440115, "timestamp": "2025-12-21T07:34:34.907456+00:00", "meta": {"OBJECT_NAME": "COSMOS 2251 DEB", "OBJECT_ID": "1993-036BS", "EPOCH": "2025-12-20T19:47:48.418080", "MEAN_MOTION": 14.69828604, "ECCENTRICITY": 0.00849619, "INCLINATION": 73.9844, "RA_OF_ASC_NODE": 12.0678, "ARG_OF_PERICENTER": 337.2006, "MEAN_ANOMALY": 207.4684, "EPHEMERIS_TYPE": 0, "CLASSIFICATION_TYPE": "U", "NORAD_CAT_ID": 33825, "ELEMENT_SET_NO": 999, "REV_AT_EPOCH": 88998, "BSTAR": 0.00053561641, "MEAN_MOTION_DOT": 3.348e-05, "MEAN_MOTION_DDOT": 0}, "tle": {"line1": "1 33825U 93036BS  25354.82486595  .00003348  00000+0  53562-3 0  9999", "line2": "2 33825  73.9844  12.0678 0084961 337.2006 207.4684 14.69828604889982"}}, "geometry": {"type": "Point", "coordinates": [-112.05568135390382, -71.06060800322207]}}, {"type": "Feature", "properties": {"norad_id": 33826, "name": "COSMOS 2251 DEB", "group": "cosmos-2251-debris", "lat": -45.10451488252405, "lon": 17.089147937341465, "alt_km": 757.5619556171569, "timestamp": "2025-12-21T07:34:34.907465+00:00", "meta": {"OBJECT_NAME": "COSMOS 2251 DEB", "OBJECT_ID": "1993-036BT", "EPOCH": "2025-12-20T14:09:39.581280", "MEAN_MOTION": 14.5175577, "ECCENTRICITY": 0.0082564, "INCLINATION": 74.0644, "RA_OF_ASC_NODE": 35.117, "ARG_OF_PERICENTER": 76.8214, "MEAN_ANOMALY": 45.7262, "EPHEMERIS_TYPE": 0, "CLASSIFICATION_TYPE": "U", "NORAD_CAT_ID": 33826, "ELEMENT_SET_NO": 999, "REV_AT_EPOCH": 87883, "BSTAR": 0.00036978, "MEAN_MOTION_DOT": 1.525e-05, "MEAN_MOTION_DDOT": 0}, "tle": {"line1": "1 33826U 93036BT  25354.59004145  .00001525  00000+0  36978-3 0  9998", "line2": "2 33826  74.0644  35.1170 0082564  76.8214  45.7262 14.51755770878831"}}, "geometry": {"type": "Point", "coordinates": [17.089147937341465, -45.10451488252405]}}, {"type": "Feature", "properties": {"norad_id": 33828, "name": "COSMOS 2251 DEB", "group": "cosmos-2251-debris", "lat": -17.224179698885944, "lon": -142.9449714267537, "alt_km": 734.7391620279177, "timestamp": "2025-12-21T07:34:34.907475+00:00", "meta": {"OBJECT_NAME": "COSMOS 2251 DEB", "OBJECT_ID": "1993-036BV", "EPOCH": "2025-12-20T16:57:34.396704", "MEAN_MOTION": 14.4435401, "ECCENTRICITY": 0.00295163, "INCLINATION": 74.0454, "RA_OF_ASC_NODE": 223.2753, "ARG_OF_PERICENTER": 294.981, "MEAN_ANOMALY": 121.4478, "EPHEMERIS_TYPE": 0, "CLASSIFICATION_TYPE": "U", "NORAD_CAT_ID": 33828, "ELEMENT_SET_NO": 999, "REV_AT_EPOCH": 88428, "BSTAR": 0.00027245325, "MEAN_MOTION_DOT": 9.16e-06, "MEAN_MOTION_DDOT": 0}, "tle": {"line1": "1 33828U 93036BV  25354.70664811  .00000916  00000+0  27245-3 0  9995", "line2": "2 33828  74.0454 223.2753 0029516 294.9810 121.4478 14.44354010884283"}}, "geometry": {"type": "Point", "coordinates": [-142.9449714267537, -17.224179698885944]}}, {"type": "Feature", "properties": {"norad_id": 33830, "name": "COSMOS 2251 DEB", "group": "cosmos-2251-debris", "lat": 35.726130702819646, "lon": 21.66573418747918, "alt_km": 665.5995140250752, "timestamp": "2025-12-21T07:34:34.907484+00:00", "meta": {"OBJECT_NAME": "COSMOS 2251 DEB", "OBJECT_ID": "1993-036BX", "EPOCH": "2025-12-20T23:05:38.253984", "MEAN_MOTION": 14.76979031, "ECCENTRICITY": 0.00426121, "INCLINATION": 74.0311, "RA_OF_ASC_NODE": 214.2443, "ARG_OF_PERICENTER": 332.6253, "MEAN_ANOMALY": 91.3407, "EPHEMERIS_TYPE": 0, "CLASSIFICATION_TYPE": "U", "NORAD_CAT_ID": 33830, "ELEMENT_SET_NO": 999, "REV_AT_EPOCH": 89593, "BSTAR": 0.00046317285, "MEAN_MOTION_DOT": 3.278e-05, "MEAN_MOTION_DDOT": 0}, "tle": {"line1": "1 33830U 93036BX  25354.96224831  .00003278  00000+0  46317-3 0  9995", "line2": "2 33830  74.0311 214.2443 0042612 332.6253  91.3407 14.76979031895939"}}, "geometry": {"type": "Point", "coordinates": [21.66573418747918, 35.726130702819646]}}, {"type": "Feature", "properties": {"norad_id": 33832, "name": "COSMOS 2251 DEB", "group": "cosmos-2251-debris", "lat": 48.6018406167135, "lon": -147.4622761496983, "alt_km": 703.164095754797, "timestamp": "2025-12-21T07:34:34.907493+00:00", "meta": {"OBJECT_NAME": "COSMOS 2251 DEB", "OBJECT_ID": "1993-036BZ", "EPOCH": "2025-12-20T13:23:52.437984", "MEAN_MOTION": 14.60728869, "ECCENTRICITY": 0.0024418, "INCLINATION": 74.0526, "RA_OF_ASC_NODE": 195.056, "ARG_OF_PERICENTER": 224.6655, "MEAN_ANOMALY": 165.2826, "EPHEMERIS_TYPE": 0, "CLASSIFICATION_TYPE": "U", "NORAD_CAT_ID": 33832, "ELEMENT_SET_NO": 999, "REV_AT_EPOCH": 88539, "BSTAR": 0.00077782, "MEAN_MOTION_DOT": 3.78e-05, "MEAN_MOTION_DDOT": 0}, "tle": {"line1": "1 33832U 93036BZ  25354.55824581  .00003780  00000+0  77782-3 0  9998", "line2": "2 33832  74.0526 195.0560 0024418 224.6655 165.2826 14.60728869885394"}}, "geometry": {"type": "Point", "coordinates": [-147.4622761496983, 48.6018406167135]}}, {"type": "Feature", "properties": {"norad_id": 33835, "name": "COSMOS 2251 DEB", "group": "cosmos-2251-debris", "lat": -59.74958394779409, "lon": 55.35698296949266, "alt_km": 728.3748980465361, "timestamp": "2025-12-21T07:34:34.907502+00:00", "meta": {"OBJECT_NAME": "COSMOS 2251 DEB", "OBJECT_ID": "1993-036CC", "EPOCH": "2025-12-20T15:59:49.311744", "MEAN_MOTION": 14.62320106, "ECCENTRICITY": 0.00540227, "INCLINATION": 74.0578, "RA_OF_ASC_NODE": 85.9476, "ARG_OF_PERICENTER": 137.2138, "MEAN_ANOMALY": 342.7905, "EPHEMERIS_TYPE": 0, "CLASSIFICATION_TYPE": "U", "NORAD_CAT_ID": 33835, "ELEMENT_SET_NO": 999, "REV_AT_EPOCH": 88905, "BSTAR": 0.0005664675, "MEAN_MOTION_DOT": 2.891e-05, "MEAN_MOTION_DDOT": 0}, "tle": {"line1": "1 33835U 93036CC  25354.66654296  .00002891  00000+0  56647-3 0  9996", "line2": "2 33835  74.0578  85.9476 0054022 137.2138 342.7905 14.62320106889057"}}, "geometry": {"type": "Point", "coordinates": [55.35698296949266, -59.74958394779409]}}, {"type": "Feature", "properties": {"norad_id": 33836, "name": "COSMOS 2251 DEB", "group": "cosmos-2251-debris", "lat": 41.224661568525526, "lon": 47.4628030887997, "alt_km": 615.1397117737833, "timestamp": "2025-12-21T07:34:34.907511+00:00", "meta": {"OBJECT_NAME": "COSMOS 2251 DEB", "OBJECT_ID": "1993-036CD", "EPOCH": "2025-12-20T22:54:53.227872", "MEAN_MOTION": 14.79747118, "ECCENTRICITY": 0.00227134, "INCLINATION": 73.9968, "RA_OF_ASC_NODE": 242.7391, "ARG_OF_PERICENTER": 92.7723, "MEAN_ANOMALY": 281.9394, "EPHEMERIS_TYPE": 0, "CLASSIFICATION_TYPE": "U", "NORAD_CAT_ID": 33836, "ELEMENT_SET_NO": 999, "REV_AT_EPOCH": 64210, "BSTAR": 0.00068905583, "MEAN_MOTION_DOT": 5.174e-05, "MEAN_MOTION_DDOT": 0}, "tle": {"line1": "1 33836U 93036CD  25354.95478273  .00005174  00000+0  68906-3 0  9996", "line2": "2 33836  73.9968 242.7391 0022713  92.7723 281.9394 14.79747118642108"}}, "geometry": {"type": "Point", "coordinates": [47.4628030887997, 41.224661568525526]}}, {"type": "Feature", "properties": {"norad_id": 33837, "name": "COSMOS 2251 DEB", "group": "cosmos-2251-debris", "lat": -54.965951367048966, "lon": 15.31513842151428, "alt_km": 710.9690698342793, "timestamp": "2025-12-21T07:34:34.907520+00:00", "meta": {"OBJECT_NAME": "COSMOS 2251 DEB", "OBJECT_ID": "1993-036CE", "EPOCH": "2025-12-20T13:38:21.094080", "MEAN_MOTION": 14.50716351, "ECCENTRICITY": 0.0035906, "INCLINATION": 74.0125, "RA_OF_ASC_NODE": 40.8592, "ARG_OF_PERICENTER": 261.3278, "MEAN_ANOMALY": 98.3814, "EPHEMERIS_TYPE": 0, "CLASSIFICATION_TYPE": "U", "NORAD_CAT_ID": 33837, "ELEMENT_SET_NO": 999, "REV_AT_EPOCH": 88909, "BSTAR": 0.00017042, "MEAN_MOTION_DOT": 6.47e-06, "MEAN_MOTION_DDOT": 0}, "tle": {"line1": "1 33837U 93036CE  25354.56829970  .00000647  00000+0  17042-3 0  9993", "line2": "2 33837  74.0125  40.8592 0035906 261.3278  98.3814 14.50716351889095"}}, "geometry": {"type": "Point", "coordinates": [15.31513842151428, -54.965951367048966]}}, {"type": "Feature", "properties": {"norad_id": 33838, "name": "COSMOS 2251 DEB", "group": "cosmos-2251-debris", "lat": 70.27710937879665, "lon": -99.23080558645043, "alt_km": 741.1263580659643, "timestamp": "2025-12-21T07:34:34.907530+00:00", "meta": {"OBJECT_NAME": "COSMOS 2251 DEB", "OBJECT_ID": "1993-036CF", "EPOCH": "2025-12-20T09:42:46.395360", "MEAN_MOTION": 14.48384547, "ECCENTRICITY": 0.00275049, "INCLINATION": 74.036, "RA_OF_ASC_NODE": 135.4587, "ARG_OF_PERICENTER": 256.2914, "MEAN_ANOMALY": 137.4758, "EPHEMERIS_TYPE": 0, "CLASSIFICATION_TYPE": "U", "NORAD_CAT_ID": 33838, "ELEMENT_SET_NO": 999, "REV_AT_EPOCH": 88680, "BSTAR": 0.00029293956, "MEAN_MOTION_DOT": 1.074e-05, "MEAN_MOTION_DDOT": 0}, "tle": {"line1": "1 33838U 93036CF  25354.40470365  .00001074  00000+0  29294-3 0  9994", "line2": "2 33838  74.0360 135.4587 0027504 256.2914 137.4758 14.48384547886800"}}, "geometry": {"type": "Point", "coordinates": [-99.23080558645043, 70.27710937879665]}}, {"type": "Feature", "properties": {"norad_id": 33839, "name": "COSMOS 2251 DEB", "group": "cosmos-2251-debris", "lat": 16.360708985139564, "lon": 5.181120754487996, "alt_km": 723.1399835301027, "timestamp": "2025-12-21T07:34:34.907539+00:00", "meta": {"OBJECT_NAME": "COSMOS 2251 DEB", "OBJECT_ID": "1993-036CG", "EPOCH": "2025-12-20T19:25:08.724000", "MEAN_MOTION": 14.64438026, "ECCENTRICITY": 0.0085312, "INCLINATION": 74.0376, "RA_OF_ASC_NODE": 190.9743, "ARG_OF_PERICENTER": 301.1962, "MEAN_ANOMALY": 72.8913, "EPHEMERIS_TYPE": 0, "CLASSIFICATION_TYPE": "U", "NORAD_CAT_ID": 33839, "ELEMENT_SET_NO": 999, "REV_AT_EPOCH": 89698, "BSTAR": 0.00013471317, "MEAN_MOTION_DOT": 7.17e-06, "MEAN_MOTION_DDOT": 0}, "tle": {"line1": "1 33839U 93036CG  25354.80912875  .00000717  00000+0  13471-3 0  9999", "line2": "2 33839  74.0376 190.9743 0085312 301.1962  72.8913 14.64438026896987"}}, "geometry": {"type": "Point", "coordinates": [5.181120754487996, 16.360708985139564]}}]}